Ins,Name,Latitude,Longitude,Träger,Adresse,PLZ,Ort,Mo,Di,Mi,Do,Fr,Sa,So,Website ,Mail des:r Ansprechpartner:in,Telefon ,Vollblutspende,Thrombozytenspende,Plasmaspende,Erythrozyten,Bemerkungen
Baden-Württemberg,Blutspendezentrale,49.0176981,8.371263599999999,Städtisches Klinikum Karlsruhe,,76133,Karlsruhe,8:30-11:45; 14:30-17:00,8:30-11:45; 14:30-17:45,8:30-11:45; 14:30-18:45,8:30-11:45; 14:30-17:45,8:30-12:45,,,https://www.klinikum-karlsruhe.de/einrichtungen/spezielle-medizinische-einrichtungen/blutspendezentrale/#c4423,blutspendezentrale@klinikum-karlsruhe.de; ‎,0721 974-1720,ja,ja,nein,,vorherige Terminvereinbarung per Telefon notwendig; Gebäude N
,IKTZ Blutspendezentrale,49.4224965,8.6751427,DRK,Im Neuenheimer Feld 583,69120,Heidelberg,8:00-12:00; 13:00-16:00,13:00-18:00,8:00-12:00; 13:00-16:00,14:00-19:00,8:00-12:00; 13:00-16:00,,,https://www.iktz-hd.de/blutspende/wann-kann-ich-spenden/,,06221 65051-22,ja,ja,ja,,Terminvergabe online und unter 06221 65051-22 möglich
,Zentralinstitut für Transfusionsmedizin und Blutspendedienst,48.7841484,9.174564,Klinikum Stuttgart - Katharinenhospital,Keplerstr. 32,70174,Stuttgart,15:30-18:30,8:00-12:45,11:30:18:30,8:00-12:45,8:00-12:45,,,https://www.klinikum-stuttgart.de/kliniken-institute-zentren/zentralinstitut-fuer-transfusionsmedizin-und-blutspendedienst/blutspende/,blz@klinikum-stuttgart.de,0711 27834701,ja,nein,nein,,"Terminvergabe online möglich, längere Zeiten für Mehrfachspender"
,Institut für Transfusionsmedizin und Immunologie,49.50386,8.49733,DRK,Friedrich-Ebert-Str. 107,68167,Mannheim,"7:30-11:00, 14:00-18:30","7:30-11:00, 14:00-18:30",,"7:30-11:00, 14:00-18:30",7:30-11:00,,,https://www.blutspende.de/ueber-uns/institute-einrichtungen/mannheim/institut-mannheim.php,,0621 3706-0,ja,nein,ja,,erweiterte Zeiten für Plasmaspende
,,48.5319,9.040189999999999,DRK,Otfried-Müller-Straße 4/1,72076,Tübingen,9:00-19:00,14:00-19:00,9:00-19:00,9:00-19:00,9:00-19:00,,,https://www.blutspendezentrale.de/das-zentrum/oeffnungszeiten/,blutspende@blutspendezentrale.de,07071 29 81616,ja,ja,ja,,vorherige Terminvereinbarung per Telefon notwendig
,Institut für klinische Transfusionsmedizin und Immungenetik Ulm,48.42541,9.961739999999999,DRK,Helmholtzstr. 10,89081,Ulm,10:30-18:30,7:45-15:00,10:30-18:30,11:00-19:00,7:45-15:00,,,https://www.blutspende.de/ueber-uns/institute-einrichtungen/ulm/institut-ulm.php,,0731 150-560,ja,nein,ja,,"Mo, Di, Mi, Fr nur Plasmaspende, Do nur Vollblutspende, nur mit Terminvereinbarung"
,Institut für Transfusionsmedizin und Gentherapie,48.0058642,7.839487399999999,Universitätsklinikum Freiburg,Hugstetter Str. 55,79106,Freiburg,8:00-15:00,8:00-15:00,12:00-19:00,12:00-19:00,8:00-13:00,8:00-13:00,,https://www.uniklinik-freiburg.de/itg/blutspende.html,blutspende@uniklinik-freiburg.de,0761 27044444,ja ,ja,nein,,"Terminvereinbarung online möglich, Thrombozytenspende nach telefonischer Vereinbarung"
,Abteilung für Laboratoriumsmedizin und Krankenhaushygiene RBK,48.8157674,9.187367199999999,Robert-Bosch-Krankenhaus,Auerbachstr. 100,70376,Stuttgart,,,,,,,,https://www.rbk.de/standorte/robert-bosch-krankenhaus/abteilungen/laboratoriumsmedizin-und-krankenhaushygiene/blutspende.html,thrombozytenspende@rbk.de,0711 8101-3555,nein,ja,nein,,Termin nach Absprache
,Plasmazentrum Heidelberg,49.40602430000001,8.6932127,Plasmazentrum Heidelberg,Hans-Böckler-Straße 2a,69115,Heidelberg,,,,,,,,https://www.plasmazentrum-heidelberg.de/,info@plasmazentrum-heidelberg.de,06221 89466960,nein,nein,ja,,
,Plasmaspende Mannheim,49.4786264,8.472361,octapharma plasma,Heinrich-von-Stephan-Str. 5,68161,Mannheim,12:00-20:00,12:00-20:00,12:00-20:00,12:00-20:00,12:00-20:00,9:00-15:00,,https://www.octapharmaplasma.de/standorte/mannheim,pzman-mannheim@octapharmaplasma.de,0621 8191090,nein,nein,ja,,
Bayern,Institut für Transfusionsmedizin München,48.133927,11.5555333,BRK,Herzog-Heinrich-Str. 4,80336,München,,,13:00-19:00,,,,,https://www.blutspendedienst.com/kliniken-und-praxen/ansprechpartner-und-kontakt/institut-muenchen,bsd-muenchen@blutspendedienst.com,089 5399-0,ja,ja,nein,,"abweichende Zeiten für Thrombozytenspende, Terminreservierung online notwendig"
,Klinikum Großhadern Spendeeinheit - Zellseparation,48.1128924,11.4749887,LMU,Marchioninistraße 15d EG,81375,München,"8:00 Uhr, 10:15 Uhr, 13:00 Uhr, 15:15 Uhr","8:00 Uhr, 10:15 Uhr, 13:00 Uhr","8:00 Uhr, 10:15 Uhr, 13:00 Uhr","8:00 Uhr, 10:15 Uhr, 13:00 Uhr, 15:15 Uhr",10:15 Uhr,,,http://www.klinikum.uni-muenchen.de/Klinik-fuer-Anaesthesiologie/Transfusionsmedizin-Zelltherapeutika-und-Haemostaseologie/de/Thrombozytenspende/Allgemeines_zur_Thrombozytenspende/index.html,,49 89 4400 74408,,ja,nein,,Terminreservierung notwendig
,Institut für Transfusionsmedizin Nürnberg,49.4639739,11.0628662,BRK,Heimerichstr. 57,90419,Nürnberg,7:00-15:00,12:00-18:30,,12:00-18:30,7:00-12:00,,,https://www.blutspendedienst.com/kliniken-und-praxen/ansprechpartner-und-kontakt/institut-nuernberg,bsd-nuernberg@blutspendedienst.com,0911 3745-530,nein,ja,nein,,Terminreservierung notwendig
,CSL Plasma ,49.450202,11.0778966,CSL Plasma ,Pfannenschmiedsgasse 5,90402,Nürnberg,7:30-19:30,7:30-19:30,7:30-19:30,7:30-19:30,7:30-19:30,8:00-14:30,,https://www.plasma-spenden.de/plasmaspende,nuernber@clsplasma.com,0911 22911,nein,nein,ja,,
,Haema Plasmaspendezentrum Augsburg,48.3690115,10.8970714,Haema Blutspendedienst,Philippine-Welser-Straße 8,86150,Augsburg,11:00-19:00,9:00-17:00,9:00-17:00,11:00-19:00,9:00-17:00,9:00-13:00,,https://www.haema.de/blutspendezentren/bayern/augsburg.html?nomob=1,,0821 2170070,nein,nein,ja,,Terminreservierung momentan notwendig
,Haema Plasmaspendezentrum Bayreuth,49.9522805,11.570178,Haema Blutspendedienst,Spinnereistr. 5b,95445,Bayreuth,8:00-18:00,09:00-18:00,14:00-19:00,9:00-18:00,9:00-17:00,9:00-13:00,,https://www.haema.de/blutspendezentren/bayern/bayreuth.html?nomob=1,,0921 4040,nein,nein,ja,,Terminreservierung momentan notwendig
,Haema Plasmaspendezentrum Fürth,49.473735,10.990102,Haema Blutspendedienst,Hallstr. 9,90762,Fürth,10:00-18:30,9:00-18:30,13:00-18:00,10:00-18:30,9:00-17:30,9:00-14:00,,https://www.haema.de/blutspendezentren/bayern/fuerth.html?nomob=1,,0911 2165590,nein,nein,ja,,Terminreservierung momentan notwendig
,Haema Plasmaspendezentrum Ingolstadt,48.7621317,11.4257213,Haema Blutspendedienst,Rathausplatz 11,85049,Ingolstadt,7:30-18:30,7:30-18:30,14:00-18:30,7:30-18:30,9:00-17:00,9:00-13:00,,https://www.haema.de/blutspendezentren/bayern/ingolstadt.html?nomob=1,,0841 934140,nein,nein,ja,,Terminreservierung momentan notwendig
,Haema Blutspendezentrum München,48.1491845,11.5587895,Haema Blutspendedienst,Dachauer Straße 70,80335,München,10:00-17:00,10:00-19:00,12:00-19:00,10:00-17:00,9:00-18:00,,,https://www.haema.de/blut-plasmaspendezentren/bayern/muenchen.html,,089 547265990,ja,nein,ja,,Terminreservierung momentan notwendig
,Haema Blutspendezentrum Nürnberg,49.4406788,11.0805152,Haema Blutspendedienst,Aufseßplatz 21,90459,Nürnberg,11:30-18:30,9:30-16:30,11:30-18:30,9:30-16:30,11:30-18:30,,,https://www.haema.de/blut-plasmaspendezentren/bayern/nuernberg.html?nomob=1,,0911 2342980,ja,nein,ja,,Terminreservierung momentan notwendig
,Haema Blutspendezentrum Regensburg,49.0059646,12.1194544,Haema Blutspendedienst,Hildegard-vonBingen-Str. 1,93053,Regensburg,8:30-15:00,12:30-19:00,12:30-19:00,12:30-19:00,10:00-16:30,,,https://www.haema.de/blut-plasmaspendezentren/bayern/regensburg.html,,9412808970,nein,nein,ja,,Terminreservierung momentan notwendig
,Institut für Transfusionsmedizin und Hämostaseologie,48.3849056,10.838011,Universitätsklinikum Augsburg,Stenglinstr. 2,86156,Augsburg,,,,,,,,https://www.blutspendenkannmehr.de/, info@uk-augsburg.de,0821 400-2698,ja,ja,nein,,Terminvergabe telefonisch
,Institut für Transfusionsmedizin Regensburg,49.0135631,12.135031,BRK,Hoher-Kreuz-Weg 7,93055,Regensburg,7:30-15:30,8:00-15:30,11:30-17:30,11:30-17:30,7:30-12:30,,,https://www.blutspendedienst.com/kliniken-und-praxen/ansprechpartner-und-kontakt/institut-regensburg,bsd-regensburg@blutspendedienst.com; ‎,0941 796040,ja (siehe Bemerkung),ja,nein,,"Vollblutspende nur an jedem letzten Freitag im Monat in jedem zweiten Monat von 14:00-18:00 möglich, Terminreservierung notwendig"
,Plasmazentrum Würzburg,49.7829075,9.934092,BRK,Virchowstr. 22,97072,Würzburg,8:30-18:30,8:30-18:30,14:00-18:00,8:30:18:30,8:30-17:00,9:00-13:00,,https://www.plasmazentrum-wuerzburg.de/,info@plasmazentrum-wuerzburg.de,0931 8809840,nein,nein,ja,,"jeder 1. Dienstag im Monat von 11:00-14:00 keine Spende möglich, Terminreservierung möglich"
,Institut für Klinische Transfusionsmedizin und Hämotherapie,49.8070151,9.958693499999999,Uniklinik Würzburg,Oberdürrbacher Straße 6,97080,Würzburg,,,,,,,,https://www.ukw.de/transfusionsmedizin/schwerpunkte/blutspende/,transfusionsmedizin@ukw.de,0049 931 201-31230,ja,ja,ja,,Termin vorher telefonisch vereinbaren
Berlin,Zentrum für Transfusionsmedizin und Zelltherapie Berlin,52.52353,13.37773,Charite Berlin,Schuhmannstr.22(Erdgeschoss),10117,Berlin,10:00-16:30,11:00-18:30,11:00-18:30,10:00-16:30,07:00-13:15,,,https://www.ztb-blutspende.de/,Formular auf Website,030 450525167,ja,ja,ja,,
,CSL Plasma ,52.5078137,13.3996485,CSL Plasma ,Axel-Springer-Straße 42,10969,Berlin,08:00-19:00,08:00-19:00,08:00-19:00,08:00-19:00,08:00-19:00,08:00-14:00,,https://www.plasma-spenden.de/,berlin@cslplasma.com,0302537470,nein,nein,ja,,
,Haema Blutspendezentrum Berlin-Charlottenburg,52.50847,13.3058401,Haema Blutspendedienst,Wilmersdorfer Straße 54,10627,Berlin,8:00 - 19:00 Uhr,8:00 - 19:00 Uhr,8:00 - 19:00 Uhr,8:00 - 19:00 Uhr,8:00 - 19:00 Uhr,8:00 - 14:00 Uhr,,https://www.haema.de/blut-plasmaspendezentren/berlin/berlin-charlottenburg.html,charlottenburg@haema.de,030 688 383 620,ja,nein,ja,,Termin vorher Telefonisch Festlegen 
,Haema Blutspendezentrum Berlin-Hellersdorf,52.53769560000001,13.6059446,Haema Blutspendedienst,Peter-Weiss-Gasse 1,12627,Berlin,8:00 - 19:00 Uhr,8:00 - 19:00 Uhr,8:00 - 19:00 Uhr,8:00 - 19:00 Uhr,8:00 - 19:00 Uhr,8:00 - 14:00 Uhr,,https://www.haema.de/blut-plasmaspendezentren/berlin/berlin-hellersdorf.html,hellersdorf@haema.de,030 992 550,ja,nein,ja,,Termin vorher Telefonisch Festlegen 
,Haema Blutspedezentrum Tegel,52.58381,13.2882491,Haema Blutspendedienst,Berliner Straße 25,13507,Berlin ,7:00 - 20:00 ,7:00 - 20:00,7:00 - 20:00,7:00 - 20:00,7:00 - 20:00,8:00 - 14:00,,https://www.haema.de/blut-plasmaspendezentren/berlin/berlin-tegel.html,tegel@haema.de, 030 437 436 0,ja,nein,ja,,Termin vorher Telefonisch Festlegen 
,Haema Blutspendezentrum Wedding ,52.5496484,13.3881409,Haema Blutspendedienst,Badstraße 4a,13357,Berlin ,8:00 - 20:00,8:00 - 20:00,8:00 - 20:00,8:00 - 20:00,8:00 - 20:00,8:00 - 14:00,,https://www.haema.de/spendezentren/berlin/berlin-wedding.html?nomob=1,wedding@haema.de,030 497 689 210,ja,nein,ja,,
,Haema Blutspendezentrum Prenzlauer Berg,52.5288656,13.4560194,Haema Blutspendedienst,Landsberger Allee 117 ,10407,Berlin,7:00 - 20:00,7:00 - 20:00,7:00 - 20:00,7:00 - 20:00,7:00 - 20:00,8:00 - 14:00,,https://www.haema.de/blut-plasmaspendezentren/berlin/berlin-prenzlauer-berg.html?nomob=1,prenzlauerberg@haema.de, 030 457 997,ja,nein,ja,,Termine voher Telefonisch Festlegen
,Haema Blutspendezentrum Berlin-Marzahn,52.5691506,13.5690429,Haema Blutspendedienst,Havemannstraße 12b,12689,Berlin ,7:30 - 19:00 Uhr,7:30 - 19:00 Uhr,10:00 - 17:00 Uhr,7:30 - 19:00 Uhr,7:30 - 19:00 Uhr,7:30 - 13:00 Uhr,,https://www.haema.de/blut-plasmaspendezentren/berlin/berlin-marzahn.html,marzahn@haema.de,030 936 410,ja,nein,ja ,,
Brandenburg,Blutspendezentrum Neuruppin,52.9075403,12.8001781,DRK,"Fehrbelliner Str. 38, F-Haus",16816,Neuruppin,,10:00-13:00,,14:30-18:30,,,,https://www.blutspende-nordost.de/blutspende/termine-zur-blutspende/blutspende-neuruppin.php,,03391 458293,ja,nein,nein,,nur jeden 1. Dienstag im Monat
,Blutspendezentrum Frankfurt/Oder,52.3417838,14.5421488,DRK,"Heilbronner Str. 1, Haus 4",15230,Frankfurt/Oder,,,,,,,,https://www.blutspende-nordost.de/blutspende/termine-zur-blutspende/blutspende-frankfurt-oder.php,,03355 558746,ja,nein,nein,,Die Termine entnehmen Sie bitte der Termindatenbank
,"Institut für Transfusionsmedizin Potsdam, Blutspende",52.4012755,13.0655282,DRK,"Charlottenstr. 72, Eingang Hebbelstr. 1, Haus I",14467,Potsdam,12:00-19:00,,,,12:00-19:00,,,https://www.blutspende-nordost.de/blutspende/termine-zur-blutspende/blutspende-plasmaspende-potsdam.php,,0331 2846–0,ja,nein,nein,,
,"Institut für Transfusionsmedizin Potsdam, Plasmaspende",52.4012755,13.0655282,DRK,"Charlottenstr. 72, Eingang Hebbelstr. 1, Haus I",14467,Potsdam,07:00-13:00,12:00-18:00,12:00-18:00,12:00-18:00,07:00-13:00,,,https://www.blutspende-nordost.de/blutspende/termine-zur-blutspende/blutspende-plasmaspende-potsdam.php,,0331 2846–0,nein,nein,ja,,
,"Institut für Transfusionsmedizin Cottbus, Blutspende",51.7417713,14.3246024,DRK,Thiemstraße 105,03050,Cottbus,15:00-19:00,,15:00-19:00,,07:00-10:00,,,https://www.blutspende-nordost.de/blutspende/termine-zur-blutspende/blutspende-plasmaspende-cottbus.php,,0355 4995–0,ja,nein,nein,,
,"Institut für Transfusionsmedizin Cottbus, Plasmaspende",51.7417713,14.3246024,DRK,Thiemstraße 105,03050,Cottbus,,07:00-19:00,12:00-19:00,07:00-19:00,07:00-15:00,,,https://www.blutspende-nordost.de/blutspende/termine-zur-blutspende/blutspende-plasmaspende-cottbus.php,,0355 4995–0,nein,nein,ja,,
,Haema Blutspendezentrum Brandenburg an der Havel,52.40570109999999,12.5670032,Haema Blutspendedienst,Kirchhofstraße 1-2,14776,Brandenburg an der Havel,07:00-20:00,07:00-20:00,07:00-20:00,07:00-20:00,07:00-20:00,08:00-14:00,,https://www.haema.de/spendezentren/brandenburg/brandenburg-an-der-havel.html,,03381 396 753 0,ja,nein,ja,,"Bitte vereinbaren Sie für Ihre Spende vorher einen Termin, um Wartezeiten zu vermeiden. Terminvereinbarungen sind telefonisch unter 03381 396 753 0 möglich."
,Haema Blutspendezentrum Frankfurt (Oder),52.3430864,14.5509592,Haema Blutspendedienst,"Komplex ""Der Oderturm"" | Karl-Marx-Str. 2",15230,Frankfurt/Oder,07:30-19:00,07:30-19:00,07:30-17:00,07:30-19:00,07:30-19:00,08:00-13:00 (14-tägig),,https://www.haema.de/spendezentren/brandenburg/frankfurt-oder.html,,0335 869 118 20,ja,nein,ja,ja,"Samstag: 14-tägig, in der ungerade Kalenderwoche geöffnet."
,Haema Blutspendezentrum Potsdam,52.3711652,13.1341523,Haema Blutspendedienst,"Am ""Stern-Center"" | Nuthestraße 1",14480,Potsdam,07:30-18:30,07:30-18:30,07:30-18:30,07:30-18:30,07:30-18:30,07:30-12:30,,https://www.haema.de/spendezentren/brandenburg/potsdam.html,,0331 297 041 30,nein,nein,ja,,"Bis 28.3.2020 verkürzt von 11 bis 18 Uhr geöffnet (Samstag bleibt unverändert). Bitte vereinbaren Sie für Ihre Spende vorher einen Termin, um Wartezeiten zu vermeiden. Terminvereinbarungen sind telefonisch unter 0331 297 041 30 möglich."
,"Gesundheitszentrum am Hauptbahnhof, Brandenburg an der Havel",52.4015553,12.5649344,DRK,Johann-Carl-Sybel-Str. 1,14776,Brandenburg an der Havel,,,,14:30-18:30 (14-tägig),,,,https://www.gesundheitszentrum-hauptbahnhof.de/dienstleister/drk-blutspendedienst-nord-ost,info.centermanagement@gzb-hauptbahnhof.de,03381/2147114,ja,nein,nein,,14-tägig
Bremen,CSL Plasma Center,53.0806658,8.816799399999999,CSL Plasma GmbH,An der Weide 27-29,20195,Bremen,7:30 – 19:00,7:30 – 19:00,12:00 – 19:00,7:30 – 19:00,7:30 – 19:00,09:00 – 15:00,,www.plasma-spenden.de,bremen@cslplasma.com,0421/173640,,,ja,,
,DRK-Blutspendedienst NSTOB Institut Bremen,53.0735174,8.8431698,DRK,Friedrich-Karl-Straße 22a,28205,Bremen,,,,,,,,,,0421 43949 - 0,,,,,Terminvereinbarung telefonisch
,Blutspendedienst Klinikum Bremerhaven Institut für Laboratoriums- und Transfusionsmedizin,53.53799,8.6367,Klinikum Bremerhaven,Postbrookstraße 103,27574,Bremen,,,,,,,,,,"04 71-2 99 34 50, -51",,,,,Terminvereinbarung telefonisch
,,53.07929619999999,8.8016936,,,,Bremen,,,,,,,,,,0421/173 64-0,,,,,
Hamburg ,Institut für Transfusionsmedizin,53.5902421,9.9785922,Uniklinikum Hamburg,Martinistraße 52,20251,Hamburg,07:00-14:00,12:00-19:00,12:00-19:00,07:00-14:00,07:00-14:00,,,https://www.uke.de/kliniken-institute/institute/transfusionsmedizin/blutspende/index.html,info@uke.de,(0) 40 7410 - 52616,ja,ja,ja,,
,Blutspendedienst Altona ,53.5523015,9.9325765,Blutspendedienst Hamburg ,Ottenser Hauptstr. 10,22765,Hamburg,11.30 - 16.30,11.30 - 14.30 und 15.15 - 19.00,11.30 - 14.30 und 15.15 - 19.00,11.30 - 14.30 und 15.15 - 19.00,,,,https://www.blutspendehamburg.de/standorte-ablaufzeiten/standorte/blutspendedienst-altona/,,(0 40) 20 00 22 00,ja,ja,ja,,"
"
,Blutspendedienst Hamburg Nord,53.64973999999999,10.01397,Blutspendedienst Hamburg ,Langenhorner Markt 5,22415,Hamburg,,11.30 - 14.30 und 15.15 - 19.00,11.30 - 14.30 und 15.15 - 19.00,11.30 - 14.30 und 15.15 - 19.00,7.30 - 10.15 und 11:00 - 14:30,,,https://www.blutspendehamburg.de/standorte-ablaufzeiten/standorte/blutspendedienst-hamburg-nord/,,(0 40) 20 00 22 00,ja,ja,ja,,
,Blutspendedienst Hamburg West,53.573226,10.0644632,Blutspendedienst Hamburg ,Quarree 2,22041,Hamburg,11.30 - 16.30,11.30 - 19.00,11.30 - 19.00,11.30 - 19.00,7.30 - 14:30,09:00 - 14:00,,https://www.blutspendehamburg.de/standorte-ablaufzeiten/standorte/blutspendedienst-wandsbek/,,(0 40) 20 00 22 00,ja,ja,ja,,
,Blutspendedienst Hamburg Harburg,53.4586534,9.9825793,Blutspendedienst Hamburg ,Lüneburger Str. 25,21073,Hamburg,,11.30 - 14.30 und 15.15 - 19.00,11.30 - 14.30 und 15.15 - 19.00,11.30 - 14.30 und 15.15 - 19.00,7.30 - 10.15 und 11:00 - 14:30,,,https://www.blutspendehamburg.de/standorte-ablaufzeiten/standorte/blutspendedienst-harburg/,,(0 40) 20 00 22 00,ja,ja,ja,,
Hessen,Blutspende Marburg ,50.8161402,8.806970699999999,Uniklinik Marburg,Baldingerstraße,35043,Marburg,08:00-15:30 Uhr,12:00-18:30 Uhr,12:00-18:30 Uhr,08:00-15:30 Uhr,08:00-15:30 Uhr,,,https://www.ukgm.de/ugm_2/deu/umr_tra/7308.html,,06421/58-64492,ja,,,,
,Blutspende Gießen ,50.57429,8.663,Uniklinik Gießen,Langhansstraße 7,35392,Gießen,09:00 - 18:00 Uhr,09:00 - 18:00 Uhr,09:00 - 18:00 Uhr,09:00 - 18:00 Uhr,09:00 - 12:00 Uhr,10:00 - 14:00 Uhr,-,https://www.ukgm.de/ugm_2/deu/ugi_tra/7316.html,,0641/985-41506,ja,,,,
,Campusspende Gießen / Mobile Blutspende,50.57650899999999,8.6908391,Uniklinik Gießen,Otto-Behaghel Strasse 27,35394,Gießen,,11:00 -15:00 Uhr,,,,,,https://www.ukgm.de/ugm_2/deu/ugi_tra/7318.html,,0641/985-41506,ja,,,,
,Institut für Transfusionsmedizin und Immunhämatologie Frankfurt am Main,50.0919967,8.654623599999999, DRK,Sandhofstraße 1,60528,Frankfurt,-,11.30 - 18.30 Uhr,09.00 - 14.00 Uhr,11.30 - 18.30 Uhr,09.00 - 14.00 Uhr,-,-,https://www.blutspende.de/infos-zur-blutspende/blutspendezentren/institut-frankfurt.php,,069 - 67 82 - 0,ja,ja,ja,,
,CSL Plasma Center ,50.11522069999999,8.6824438,CSL Plasma GmbH,Stiftstraße 9-17,60313,Frankfurt,08:00 – 19:00 Uhr,08:00 – 19:00 Uhr,12:00 – 19:00 Uhr,08:00 – 19:00 Uhr,08:00 – 19:00 Uhr,,-,https://www.plasma-spenden.de/,frankfurt@cslplasma.com,0049 69 88 70 61,nein,nein,ja,,
,Blut- und Plasmaspendezentrum,49.8695282,8.6506852,TMD Gesellschaft für transfusionsmedizinische Dienste mbH,,64283,Darmstadt,11:00 bis 19:00 Uhr,11:00 bis 19:00 Uhr,11:00 bis 19:00 Uhr,11:00 bis 19:00 Uhr,11:00 bis 19:00 Uhr,09:00 – 16.00 Uhr,,https://www.tmd-blutspende.de/standorte/darmstadt/,,,ja,nein,ja,,"Aktuell geänderte Öffnungszeiten, normalerweise ist die Spende ab 9:00 Uhr möglich"
,Blut- und Plasmaspendezentrum,50.57987,8.663711600000001,TMD Gesellschaft für transfusionsmedizinische Dienste mbH,Bahnhofstr. 96 – 98,35390,Gießen,11:00 bis 19:00 Uhr,11:00 bis 19:00 Uhr,11:00 bis 19:00 Uhr,11:00 bis 19:00 Uhr,11:00 bis 19:00 Uhr,09:00 – 16.00 Uhr,,https://www.tmd-blutspende.de/standorte/giessen/,kontakt@tmd-group.de,0641/9845160,ja,nein,ja,,"Aktuell geänderte Öffnungszeiten, normalerweise ist die Spende ab 9:00 Uhr möglich"
,Blut- und Plasmaspendezentrum,51.3204528,9.5025391,TMD Gesellschaft für transfusionsmedizinische Dienste mbH,Untere Königsstraße 86,34117,Kassel ,11:00 bis 19:00 Uhr,11:00 bis 19:00 Uhr,11:00 bis 19:00 Uhr,11:00 bis 19:00 Uhr,11:00 bis 19:00 Uhr,-,,https://www.tmd-blutspende.de/standorte/kassel/,kontakt@tmd-group.de,0561-7004680,ja,nein,ja,,"Aktuell geänderte Öffnungszeiten, normalerweise ist die Spende ab 9:00 Uhr möglich"
,Institut für Transfusionsmedizin und Immunhämatologie Kassel,51.32918859999999,9.5103036,DRK,Mönchebergstraße 57,34125,Kassel,8.00 - 15.00 Uhr,11.00 - 19.00 Uhr,8.00 - 15.00 Uhr,8.00 - 15.00 Uhr,,-,-,https://www.blutspende.de/infos-zur-blutspende/blutspendezentren/institut-kassel.php,,05 61 - 87 93 - 0,ja,nein,ja,,Sonderöffnungszeiten in manchen Wochen
Mecklenburg-Vorpommern,Blutspendezentrum Schwerin,53.644517,11.407932,DRK,Wismarsche Straße 298,19055,Schwerin,,,13:00-19:00,,12:00-18:00,,,https://www.blutspendemv.de/startseite/startseite.php,info@blutspende-mv.de,385591450,Ja,Nein,Ja,,
,Blutspendezentrum Rostock,54.0711716,12.1106599,DRK,Robert-Koch-Straße 10,18059,Rostock,13-19:00,13:00-19:00,13:00-19:00,13:00-19:00,8:30-13:00,,,https://www.blutspendemv.de/startseite/startseite.php,info@blutspende-mv.de,381440350,Ja,nein,ja,,
,Haema Blutspendezentrum,54.0862,12.12517,Haema,Deutsche-Med-Platz 2,18057,Rostock,7:30-19:00,7:30-19:00,7:30-19:00,7:30-19:00,7:30-19:00,8:00-13:00,,https://www.haema.de/spendezentren/mecklenburg-vorpommern/rostock.html,Rostock@haema.de,381877600,Ja,Nein,Ja,,
,Haema Blutspendezentrum,53.63032980000001,11.4150778,Haema,Friedrichstraße 18,19055,Schwerin,10:00-18:00,10:00-18:00,10:00-18:00,10:00-18:00,10:00-18:00,,,https://www.haema.de/spendezentren/mecklenburg-vorpommern/rostock.html,schwerin@haema.de,,Ja,Nein,Ja,,
,Blutspendezentrum Stralsund,54.3353,13.07457,DRK,"Ärztehaus, Heinrich-Mann-Straße 64",18435,Stralsund,,13:00-19:00,,,,,,https://www.blutspendemv.de/startseite/startseite.php,info@blutspende-mv.de,38312040490,ja,nein,ja,,
,Blutspendezentrum Neubrandenburg,53.5553012,13.2595927,DRK,An der Marienkirche 4,17033,Neubrandenburg ,8:00-19:00,8:00-19:00,8:00-19:00,8:00-19:00,8:00-19:00,,,https://www.blutspendemv.de/startseite/startseite.php,info@blutspende-mv.de,0359 5707017,ja,nein,Ja,,
,Blut-und Plasmaspende im Uniklinikum Greifswald,54.0864743,13.4079037,Uniklinik Greifswald ,Ferdinand-Sauerbruch-Str,17475,Greifswald,9:00-18:00,9:00-18:00,9:00-18:00,9:00-18:00,7:00-16:00,8:00-12:00,,http://www2.medizin.uni-greifswald.de/transfus/index.php?id=469/index.html,Ualpen@uni-greifswald.de,3834865478,Ja,Ja,ja,,
Niedersachsen,Medizinische Hochschule Hannover Blutspendedienst,52.3834749,9.804799899999999,Medizinische Hochschule Hannover,Carl-Neuberg-Straße 1,30625,Hannover,-,-,-,-,7:00-9:00,-,-,https://www.mhh.de/institute-zentren-forschungseinrichtungen/institut-fuer-transfusionsmedizin-und-transplantat-engineering/blutspende,pressestelle@mh-hannover.de,0049 800 532 5325,ja,ja,nein,,
,Plasma Service Hannover,52.37569509999999,9.7379325,Plasma Service Europe,Schillerstraße 23,30159,Hannover,11:00-19:00,11:00-19:00,9:00-17:00,11:00-19:00,11:00-19:00,-,-,https://www.plasmaservice.de/de/plasmazentren/hannover.cfm,info-pse@plasmaservice.de,0511 3748320,nein,nein,ja,nein,Spenderannahme bis 1 h 15 min vor Schließung
,DRK Blutspendedienst Oldenburg,53.11143,8.21952,DRK,Brandemburger Straße 21,26133,Oldenburg,13:00 - 17:00,,14:00- 18:00,,,10:30-14:00,,https://www.drk-blutspende.de/blutspendetermine/termine?term=26129%20Oldenburg,,441944010,ja,ja,nein,,Ständig Wechselnde Locations und Uhrzeiten: Aktuelle Infos auf der DRK Website https://www.drk-blutspende.de/blutspendetermine/termine?term=26129%20Oldenburg
,,,,DRK,,,,,,,,,,,,,,,,,,
,Institut für Labormedizin,52.413263,10.7688799,Klinikum Wolfburg,Sauerbruchstr. 7,38440,Wolfsburg,-,12:00 - 17:30,8:30 - 11:30,12:00 - 17:30,8:00 - 11:00,-,,https://www.klinikum.wolfsburg.de/kliniken/institute-und-zentren/institut-fuer-labormedizin/blutspende/,blutspende@klinikum.wolfsburg.de,05361 80-1727,ja,nein,nein,nein,
,Klinikum Bremerhaven ,53.53799,8.6367,Klinikum Bremerhaven ,Postbrookstraße 103,75742,Bremerhaven ,,,,,,,,https://www.klinikum-bremerhaven.de/blutspendedienst,mailto:Blutspende@klinikum-bremerhaven.de,0471 299-3451,ja,nin,nein,nein,Blutspende nur nach Termin
,DRK Wilhelmshaven,53.5217942,8.0805057,DRK ,Güterstraße 30,26382,Wilhelmshaven,?,?,?,?,?,,,https://www.drk-whv.de/spenden/spalte-5/blutspende/blutspende.html,info(at)drk-whv.de,04421 9102-0,ja,nein,nein,nein,Öffnungszeiten nicht verfügbafr :D
,Blut- und Plasmaspendezentrum,52.2728438,8.0513704,TMD Gesellschaft für transfusionsmedizinische Dienste mbH,Kollegienwall 3-4,49074,Osnabrück,09:00-19:00,09:00-19:00,09:00-19:00,09:00-19:00,09:00-19:00,09:00-16:00,,https://www.tmd-blutspende.de/standorte/osnabrueck/,,0541 33587410,ja,nein,ja,nein,
,Blutspende am Campus,51.5377786,9.933575,Uniklinikum Göttingen,Weender Landstr. 1,37073,Göttingen,08:00-14:00,12:00-18:00,12:00-18:00,12:00-18:00,12:00-18:00,08:00-14:00,,http://blutspende-goettingen.de/zeiten.html,,05 51 / 39 - 17 68 99,ja,ja,ja,?,Thromobozyten nach Vereinbarung
Nordrhein-Westfahlen,DRK-Blutspendezentrum Essen,51.4535778,7.0125308,DRK ,Kettwiger Str. 5,45127,Essen,11:00-18:00,11:00-18:00,11:00-18:00,11:00-18:00,10:30-18:00,11:00-18:00,-,https://www.blutspendedienst-west.de/blutspendetermine/spendeorte/1524-blutspende-in-essen,info.essen@bsdwest.de,0201 543 793 47,ja,nein,nein,,
,Uni.Blutspendedienst OWL - Bielefeld Stadt,52.0230697,8.531171800000001,Herz- und Diabeteszentrum NRW,Obertorwall 22,33602,Bielefeld,9:30-17:00,11:30-19:00,11:30-19:00,11:30-19:00,10:30-18:00,-,-,https://www.blutspendedienst-owl.de/oeffnungszeiten/bielefeld-stadt.html,blutspendedienstowl@hdz-nrw.de,0800 4440777,ja,nein,ja,,
,Uni.Blutspendedienst OWL - Bielefeld Universität,52.0384839,8.495916200000002,Herz- und Diabeteszentrum NRW,Universitätsstraße,33615,Bielefeld,-,-,-,-,-,-,-,https://www.blutspendedienst-owl.de/oeffnungszeiten/bielefeld-universitaet.html,blutspendedienstowl@hdz-nrw.de,0521 160706,ja,nein,ja,,aktuell geschlossen
,Uni.Blutspendedienst OWL - Bünde,52.1978349,8.5965726,Herz- und Diabeteszentrum NRW,Brunnenallee 35 ,32257,Bünde,-,12:00-19:00,12:00-19:00,-,-,-,-,https://www.blutspendedienst-owl.de/oeffnungszeiten/buende.html,blutspendedienstowl@hdz-nrw.de,05223 99 3655,ja,nein,nein,,Termin vorher vereinbaren 
,Uni.Blutspendedienst OWL - Klinikum Kreis Herford,52.1261728,8.7001423,Herz- und Diabeteszentrum NRW,Schwarzenmoorstraße 70,32049,Herford,13:00-19:00,-,-,13:00-19:00,-,-,-,https://www.blutspendedienst-owl.de/oeffnungszeiten/klinikum-kreis-herford.html,blutspendedienstowl@hdz-nrw.de,05221 942449,ja,nein,nein,,
,Uni.Blutspendedienst OWL - Bad Oeynhausen (HDZ),52.1915868,8.794255699999999,Herz- und Diabeteszentrum NRW,Georgstraße 11,32545,Bad Oeyenhausen,7:30-18:00,10:00-19:00,10:00-19:00,7:30-18:00,7:30-18:00,-,-,https://www.blutspendedienst-owl.de/oeffnungszeiten/bad-oeynhausen-im-hdz.html,blutspendedienstowl@hdz-nrw.de,05731 97 1197,ja,ja,ja,,
,Uni.Blutspendedienst OWL - Minden,52.2896989,8.9186977,Herz- und Diabeteszentrum NRW,Am Rathaus 2,32423,Minden,12:00-19:00,12:00-19:00,12:00-19:00,12:00-19:00,-,-,-,https://www.blutspendedienst-owl.de/oeffnungszeiten/minden.html,blutspendedienstowl@hdz-nrw.de,0571 38516 90,ja,nein,nein,,
,Plasma Service Köln,50.9333557,6.940376,Plasma Service Europe GmbH,Hohenstaufenring 62,50674,Köln,8:00-20:00,8:00-20:00,8:00-20:00,8:00-20:00,8:00-20:00,-,-,https://www.plasmaservice.de/de/plasmazentren/koeln.cfm,info-pse@plasmaservice.de,0221 420365 0,nein,nein,ja,,Letzte Annahme 1 h 15 min vor Schließung
,Plasmaspende Aachen,50.7756067,6.0890257,octapharm plasma,Peterstraße 20-24,52062,Aachen,12:00-20:00,12:00-20:00,12:00-20:00,12:00-20:00,12:00-20:00,9:00-15:00,-,https://www.octapharmaplasma.de/standorte/aachen,pzman-aachen@octapharmaplasma.de,0241 4001550,nein,nein,ja,,
,Universitätsklinikum Bonn Blutspendedienst,50.7014825,7.103076499999999,Universitätsklinikum Bonn,"Venusberg-Campus 1, Gebäude 43",53127,Bonn,7:30-12:00,10:00-18:00,10:00-18:00,10:00-18:00,7:30-11:00,,,https://www.ukbonn.de/42256BC8002AF3E7/direct/blutspende,blutspende@ukbonn.de,0228-287 15174,ja,ja,ja,,
,Haema Blutspendezentrum Bonn,50.7334746,7.097727900000001,Haema Blutspendedienst,Poststraße 19,5311,Bonn,10:00-17:00,10:00-17:00,10:00-17:00,10:00-17:00,10:00-17:00,-,-,https://www.haema.de/spendezentren/nordrhein-westfalen/bonn.html?nomob=1,info@haema.de,0228 580 974 0,ja,nein,ja,,
,City-Blut-Spende Münster,51.9598247,7.628708499999999,DRK ,Klarissengasse 9,48143,Münster,12:00-18:00,12:00-18:00,14:00-20:00,12:00-18:00,12:00-18:00,11:00-17:00,-,https://www.blutspendedienst-west.de/blutspendetermine/spendeorte/2487-blutspende-in-muenster,-,0251 7090,ja,nein,nein,,
,Blutspendedo Dortmund,51.5085139,7.45475,Institut für Transfusionsmedizin,Alexanderstraße 6-10,44137,Dortmund,8:00-15:00,8:00-19:00,8:00-19:00,8:00-19:00,8:00-15:00,8:00-14:00,-,https://www.blutspendedo.de/,blutspende@klinikumdo.de,0231 953 19999,ja,nein,nein,,
,Blutspendezentrale Universitätsklinikum Düsseldorf,51.1965517,6.7900848,Universitätsklinikum Düsseldorf,Moorenstraße 5,40225,Düsseldorf,7:15-14:00,7:15-14:00,11:30-19:00,11:30-19:00,7:15-14:00,7:15-12:00,-,https://www.uniklinik-duesseldorf.de/patienten-besucher/klinikeninstitutezentren/institut-fuer-transplantationsdiagnostik-und-zelltherapeutika-itz/blutspendezentrale,itz-office@med.uni-duesseldorf.de,0211 81 19967,ja,ja,nein,,
,Haema Blutspendezentrum Hamm,51.6800617,7.8126464,Haema Blutspendedienst,Westring 2,59065,Hamm,11:00-18:00,11:00-18:00,11:00-18:00,11:00-18:00,11:00-18:00,11:00-18:00,-,https://www.haema.de/spendezentren/nordrhein-westfalen/hamm.html,info@haema.de,2381 929929 0,ja,nein,nein,,
,Marien Gesellschaft Siegen GmbH,50.87922769999999,8.0302847,DRK ,Kampenstr. 51,57072,Siegen,-,15:00-20:00,15:00-20:00,15:00-20:00,-,-,-,https://www.blutspendedienst-west.de/blutspendetermine/termine?utf8=%E2%9C%93&term=siegen,-,-,ja,nein,nein,,
,BZD Blutspendezentrum Duisburg,51.43267,6.7717374,Blutspendezentren.de,Königsstraße 53,47051,Duisburg-Mitte,8:00-19:00,8:00-19:00,8:00-19:00,8:00-19:00,8:00-19:00,8:00-13:00,-,https://www.blutspendezentren.de/standort-duisburg.html,(Kontaktformular vorhanden),0203 878 391 70,ja,nein,nein,,Bieten Infos zu Stoßzeiten wie Google
,BZO Oberhausen,51.48813,6.879309999999999,Blutspendezentren.de,Centroallee 271,46047,Oberhausen,9:00-17:30,9:00-17:30,9:00-17:30,9:00-17:30,-,-,-,https://www.blutspendezentren.de/standort-oberhausen.html,(Kontaktformular vorhanden),0203 878 391 0,ja,nein,nein,,Bieten Infos zu Stoßzeiten wie Google
,BZG Gelsenkirchen,51.5077221,7.0997901,Blutspendezentren.de,Bahnhofstraße 55-65,45879,Gelsenkirchen,11:00-19:00,9:00-17:00,8:00-16:00,9:00-17:00,9:00-19:00,9:00-13:00,-,https://www.blutspendezentren.de/standort-gelsenkirchen.html,(Kontaktformular vorhanden),0209 155 180,ja,nein,nein,,Bieten Infos zu Stoßzeiten wie Google
,BZW Wuppertal,51.25741679999999,7.144518799999999,Blutspendezentren.de,Erholungsstraße 19,42103,Wuppertal,10:00-18:00,10:00-18:00,10:00-18:00,10:00-18:00,10:00-18:00,9:00-13:00,-,https://www.blutspendezentren.de/standort-wuppertal.html,(Kontaktformular vorhanden),0203 878 391 70,ja,nein,nein,,Bieten Infos zu Stoßzeiten wie Google
Rheinland-Pfalz,Plasmaspende Koblenz,50.3594555,7.5941263,Octapharma Plasma,Löhrstraße 23,56068,Koblenz,12:00 bis 20:00 Uhr,12:00 bis 20:00 Uhr,12:00 bis 20:00 Uhr,12:00 bis 20:00 Uhr,12:00 bis 20:00 Uhr,,,https://www.octapharmaplasma.de/standorte/koblenz,pzman-koblenz@octapharmaplasma.de,0261 973760,nein,nein,ja,,
,Transfusionszentrale ,49.9934082,8.2605116,Uniklinik Mainz,Augustusplatz (Gebäude 905),55131,Mainz,8:00 - 16:00 Uhr,8:00 - 18:00 Uhr,8:00 - 16:00 Uhr,8:00 - 18:00 Uhr,8:00 - 16:00 Uhr,8:00 - 11:00 Uhr,-,https://www.unimedizin-mainz.de/transfusionszentrale/startseite/startseite.html,blutspende-info@unimedizin-mainz.de,0049 6131 17317,ja,ja,nein,,
,Zentrum für Transfusionsmedizin,49.82444,7.848199999999999,DRK-Blutspendedienst Rheinland-Pfalz und Saarland gGmbH,Burgweg 5-7,55543,Bad Kreuznach,08:00 - 14:00 Uhr,15:00 - 19:00 Uhr,08:00 - 15:00 Uhr,11:00 - 18:00 Uhr,08:00 - 14:00 Uhr,,,https://www.blutspendedienst-west.de/blutspendedienst/standorte/Bad-Kreuznach,badkreuznach@bsdwest.de,0671 253 0,ja,nein,nein,,
,Blutspendezentrale Saar-Pfalz,49.4414225,7.7563894,Blutspendezentrale Saar-Pfalz gGmbH,Hellmut-Hartert-Str. 1,67655,Kaiserslautern,7:30 bis 13:30 Uhr,12:00 bis 18:00 Uhr,12:00 bis 18:00 Uhr,7:30 bis 13:30 Uhr,7:30 bis 13:30 Uhr,"Jeden 3. Samstag im Monat, 9:00 bis 12:00 Uhr",,https://www.blutspendezentrale-saarpfalz.de/,bsz-saarpfalz@klinikum-saarbruecken.de,0631/203-1804,ja,ja,ja,,
Saarland,Blutspendezentrale Saar-Pfalz,49.2206067,6.9934156,Blutspendezentrale Saar-Pfalz gGmbH,Theodor-Heuss-Str. 128,66119,Saarbrücken,8:00 bis 15:00 Uhr,12:00 bis 18:00 Uhr,12:00 bis 18:00 Uhr,8:00 bis 15:00 Uhr,8:00 bis 15:00 Uhr,"Jeden 3. Samstag im Monat, 10:00 bis 13:00 Uhr",,https://www.blutspendezentrale-saarpfalz.de/,bsz-saarpfalz@klinikum-saarbruecken.de,0681/963-2560,ja,ja,ja ,,
,Blutspendedienst ,49.3120675,7.342869299999998, Universitätsklinikum des Saarlandes,Ringstraße 52,66421,Homburg/Saar,"08:00 - 11:00 Uhr, 13:00 - 14:00 Uhr","08:00 - 11:00 Uhr, 13:00 - 14:00 Uhr",13:00 - 18:30 Uhr,13:00 - 18:30 Uhr,-,-,-,https://www.uniklinikum-saarland.de/de/einrichtungen/kliniken_institute/chirurgie/haemostaseologie/infos_fuer_blutspender/,,06841 16-22540,ja,ja,nein,,"Verlängerte Öffnungszeiten für Mehrfachspender, Thrombozyten nach Terminvereinbarung, Gebäude 1"
Sachsen,Institut für Transfusionsmedizin,51.3293019,12.3902125,Uniklinik Leipzig,"Johannisallee 32, Haus 8",4103,Leipzig,08:00-19:00,11:30-19:00,11:30-19:00,11:30-19:00,08:00-19:00,jeden letztenSA im Monat von 10-14 Uhr,,"https://blutbank.uniklinikum-leipzig.de/blutbank2012.site,postext,standorte.html",info@blutbank-leipzig.de,03 41 / 97 - 2 53 93,ja,ja ,ja,,
,Institut für Transfusionsmedizin ,51.05291,13.78018,DRK,Blasewitzer Str. 68/70,1307,Dresden,06.30 – 19.00,12.00 – 19.00,12.00 – 19.00,12.00 – 19.00,06.30 – 19.00,Nein,,https://www.blutspende-nordost.de/blutspende/termine-zur-blutspende/blutspende-dresden.php,-,0351 44508-0,ja,nein,ja,,
,Institut für Transfusionsmedizin ,50.8407341,12.962506,DRK,Zeisigwaldstraße 103,9130,Chemnitz,08.00 – 12.00 Uhr und,08.00 – 12.00 Uhr und,08.00 – 12.00 Uhr und,08.00 – 12.00 Uhr und,08.00 – 12.00,,,https://www.blutspende-nordost.de/blutspende/termine-zur-blutspende/blutspende-plasmaspende-chemnitz.php,-,0371 43220–0,ja,nein,ja,,
,Haema Blutspendezentrum Chemnitz,50.831837,12.9193435,Haema Blutspendedienst,Rosenhof Arkaden | Markt 5,9111,Chemnitz,7:30 - 19:30 Uhr,7:30 - 19:30 Uhr,7:30 - 19:30 Uhr,7:30 - 19:30 Uhr,7:30 - 19:30 Uhr,7:00 - 13:00 Uhr,,https://www.haema.de/spendezentren/sachsen/chemnitz.html,,0371 666 275 0,ja,nein,ja,,
,Haema Plasmaspendezentrum Dresden-Elbepark,51.0823083,13.6960235,Haema Blutspendedienst,Stadthaus | Lommatzscher Straße 82,1139,Dresden,8:00 - 19:30 Uhr,8:00 - 19:30 Uhr,8:00 - 19:30 Uhr,8:00 - 19:30 Uhr,8:00 - 19:30 Uhr,8:00 - 13:00 Uhr,,https://www.haema.de/spendezentren/sachsen/dresden-elbepark.html,,0351 20 28 700,nein,nein,ja,,
,Haema Blutspendezentrum Dresden-World Trade Center,51.04808999999999,13.7237,Haema Blutspendedienst,Rosenstraße 30,1067,Dresden,7:00 - 20:00 Uhr,7:00 - 20:00 Uhr,7:00 - 20:00 Uhr,7:00 - 20:00 Uhr,7:00 - 20:00 Uhr,7:00 - 12:00 Uhr,,https://www.haema.de/spendezentren/sachsen/dresden-world-trade-center.html,,0351 407 925 0,ja,nein,ja,,
,Haema Blutspendezentrum Dresden-Fetscherplatz,51.0467891,13.7705699,Haema Blutspendedienst,Fetscherplatz 2a,1307,Dresden,7:00 - 20:00 Uhr,7:00 - 20:00 Uhr,7:00 - 20:00 Uhr,7:00 - 20:00 Uhr,7:00 - 20:00 Uhr,7:00 - 12:00 Uhr,,https://www.haema.de/spendezentren/sachsen/dresden-fetscherplatz.html,,0351 216 681 0,ja,nein,ja,,
,Haema Blutspendezentrum Freiberg,50.9117164,13.3449795,Haema Blutspendedienst,Bahnhofstraße 40-42,9599,Freiberg,7:30 - 19:30 Uhr,7:30 - 19:30 Uhr,7:30 - 19:30 Uhr,7:30 - 19:30 Uhr,7:30 - 19:30 Uhr,        7:30 - 12:00 Uhr,,https://www.haema.de/spendezentren/sachsen/freiberg.html,,03731 589 594 0,ja,nein,ja,,
,Haema Blutspendezentrum Görlitz,51.15170999999999,14.987955,Haema Blutspendedienst,CityCenter Frauentor | An der Frauenkirche 12,2826,Görlitz,7:00 - 18:30 Uhr,7:00 - 18:30 Uhr,7:00 - 18:30 Uhr,7:00 - 18:30 Uhr,7:00 - 18:30 Uhr,7:00 - 12:00 Uhr,,https://www.haema.de/spendezentren/sachsen/goerlitz.html,,03581 877 780,ja,nein,ja,ja,
,Haema Blutspendezentrum Grimma,51.23798739999999,12.722138,Haema Blutspendedienst,Käthe-Kollwitz-Straße 6,4668,Grimma,12:00 - 18:00 Uhr,12:00 - 18:00 Uhr,12:00 - 18:00 Uhr,12:00 - 18:00 Uhr,12:00 - 18:00 Uhr,12:00 - 18:00 Uhr,,https://www.haema.de/spendezentren/sachsen/grimma.html?nomob=1,,03437 707 650,ja,nein,ja,,
,Haema Blutspendezentrum Leipzig-Markt,51.34087299999999,12.374145,Haema Blutspendedienst,Markt 9,4109, Leipzig,8:00 - 18:30 Uhr,8:00 - 18:30 Uhr,8:00 - 18:30 Uhr,8:00 - 18:30 Uhr,8:00 - 18:30 Uhr,8:00 - 18:30 Uhr,,https://www.haema.de/spendezentren/sachsen/leipzig-markt.html?nomob=1,,0341 212 006 0,ja,ja,ja,,
,Haema Blutspendezentrum Leipzig-Gohlis Arkaden,51.3618371,12.3711376,Haema Blutspendedienst,Lützowstraße 11,4155, Leipzig,7:00 - 20:00 Uhr,7:00 - 20:00 Uhr,7:00 - 20:00 Uhr,7:00 - 20:00 Uhr,7:00 - 20:00 Uhr,7:00 - 13:00 Uhr,,https://www.haema.de/spendezentren/sachsen/leipzig-gohlis-arkaden.html,,0341 583 095 0,ja,ja,ja,,
,Haema Blutspendezentrum Leipzig-Connewitz,51.3119031,12.3736328,Haema Blutspendedienst,Karl-Liebknecht-Straße 153-155,4277,Leipzig,8:00 - 19:00 Uhr,8:00 - 19:00 Uhr,8:00 - 19:00 Uhr,8:00 - 19:00 Uhr,8:00 - 19:00 Uhr,8:00 - 12:00 Uhr,,https://www.haema.de/spendezentren/sachsen/leipzig-connewitz.html,,0341 303 768 0,ja,ja,ja,,
,Haema Blutspendezentrum Plauen,50.494268,12.137141,Haema Blutspendedienst,Klostermarkt | Oberer Steinweg 10,8523,Plauen,7:30 - 19:30 Uhr,7:30 - 19:30 Uhr,7:30 - 19:30 Uhr,7:30 - 19:30 Uhr,7:30 - 19:30 Uhr,7:30 - 12:00 Uhr,,https://www.haema.de/spendezentren/sachsen/plauen.html?nomob=1,,03741 280 740,ja,nein,ja,,
,Haema Blutspendezentrum Zwickau,50.71895199999999,12.4938284,Haema Blutspendedienst,Zwickau Arcaden | Marienstraße 3/1,8056,Zwickau,7:30 - 19:30 Uhr,7:30 - 19:30 Uhr,7:30 - 19:30 Uhr,7:30 - 19:30 Uhr,7:30 - 19:30 Uhr,7:30 - 12:00 Uhr,,https://www.haema.de/spendezentren/sachsen/zwickau.html?nomob=1,,0375 272 194 0,ja,nein,ja,,
,,,,,,,,,,,,,,,,,,,,,,
,,,,,,,,,,,,,,,,,,,,,,
,,,,,,,,,,,,,,,,,,,,,,
,,,,,,,,,,,,,,,,,,,,,,
Sachsen-Anhalt,Medizinisches Institut Uniklinik Halle,51.5013753,11.9368361,Uniklinik Halle,Ernst-Grube-Straße 40,6120,Halle an der Saale,07:00-11:00,10:00-19:00,,10:00-19:00,10:00-15:00,,,https://www.medizin.uni-halle.de/index.php?id=1350,blutspende@ uk-halle.de,(0345) 557 5656,ja,ja,ja,,
,Institut für Transfusionsmedizin und Immunhämatologie,52.1026163,11.6158495,Uniklinik Magdeburg,Leipziger Str. 44,39120,Magdeburg,07.00-12.00,11.00-19.00,11.00-19.00,07.00-12.00,07.00-15.00,,,http://www.itib.ovgu.de/,transmed@ovgu.de,0391-67-13939,ja,ja,ja,,
Schleswig-Holstein,DRK-Blutspendedienst Nord-Ost gGmbH / Institut Schleswig,54.51558,9.56371,,Rote-Kreuz-Weg 5,24837,schleswig,8:00-12:30,14:00-19:00,14:00-19:00,11:00-19:00,8:00-12:30,,,,,,,,,,
,Blutspendedienst Diakonie,54.7902378,9.4250521,Diakonie,Marienhölzungsweg 2,24939,Flensburg,10:00-15:00,12:00-18:00,,12:00-18:00,7:30-15:00,,,,,0461 8121655,,,,,
,UKSH Bluspendezentrum,54.33094999999999,10.1442099,UKSH,Michaelisstraße 5,24105,Kiel,24h,24h,24h,24h,24h,24h,24h,https://www.uksh.de/blutspende/,Sekretariat.Transfusion@uksh.de,0451 500-16001,Ja,Ja,Ja,,
,UKSH Bluspendezentrum,54.3131711,10.0985366,UKSH ,"Citti-Park, Mühlendamm 1",24113,Kiel,10:00-16:00,12:00-18:00,12:00-18:00,12:00-18:00,10:00-16:00,10:00-14:00,,https://www.uksh.de/blutspende/blutspende_kiel.html,Sekretariat.Transfusion@uksh.de,0431 50016191,ja,ja,ja,,
,UKSH Bluspendezentrum,53.8342754,10.703648,UKSH ,Ratzeburger Allee 160,23562,Lübeck,8:00-13:00,13:00-18:00,13:00-18:00,10:00-15:00,8:00-13:00,,,https://www.uksh.de/blutspende/blutspende_luebeck.html,Sekretariat.Transfusion@uksh.de,0451 50016051,Ja,Ja,Ja,,
,UKSH Bluspendezentrum,53.8579081,10.6283327,UKSH ,"Citti-Park, Herrenholz 14",23556,Lübeck,13:00-18:00,10:00-15:00,,13:00-18:00,13:00-18:00,10:00-14:00,,https://www.uksh.de/blutspende/blutspende_luebeck.html,Sekretariat.Transfusion@uksh.de,0451 50016091,ja,ja,ja,,
,Haema Blutspendezentrum ,53.8656139,10.6855996,Haema,Sandstraße 1,23552,Lübeck,8:00-19:00,8:00-19:00,8:00-19:00,8:00-19:00,8:00-19:00,,,https://www.haema.de/spendezentren/schleswig-holstein/luebeck.html,luebeck@haema.de,45198930110,Ja,Nein,Ja,,
,Blutspendedienst Itzehoe,53.94222689999999,9.5040823,Klinik Itzehoe,Robert-Koch-Straße 2,25524,Itzehoe,,10:00-18:00,10:00-18:00,11:00-19:00,7:30-13:30,,,https://www.blutspendehamburg.de/standorte-ablaufzeiten/standorte/blutspendedienst,,4020002200,,,,,
,Blutspendezentrum Neumünster,54.0729431,9.9840158,DRK,,23534,Neumünster,,,,,,,,http://www.drk-nms.de/blutspende.html,,,,,,,
Thüringen,Institut für Transfusionsmedizin Suhl,50.6033853,10.709559,Institut für Transfusionsmedizin Suhl Gemeinnützige GmbH,Albert-Schweitzer-Straße 15,98527,Suhl,07.00 Uhr - 18.30 Uhr,07.00 Uhr - 18.30 Uhr,07.00 Uhr - 18.30 Uhr,07.00 Uhr - 18.30 Uhr,07.00 Uhr - 18.00 Uhr,09.00 Uhr - 12.30 Uhr,,https://www.blutspendesuhl.de/,spendeinfo@blutspendesuhl.de,(03681) 373-0,ja,nein,ja,,
,Blut- und Plasmaspendestation Eisenach,50.9825282,10.3136216,Institut für Transfusionsmedizin Suhl Gemeinnützige GmbH,Mühlhäuser Straße 27,99817,Eisenach,11:00 - 19:00 Uhr,11:00 - 18:30 Uhr,06:30 - 11:00 Uhr,11:00 - 19:00 Uhr,08:00 - 16:00 Uhr,-,-,https://www.blutspendesuhl.de/54-0-Oeffnungszeiten-Eisenach.html,spendeinfo@blutspendesuhl.de,(0 36 91) 21 36 67,ja,nein ,ja,,
,Blut- und Plasmaspendestation Ilmenau,50.6847429,10.9173157,Institut für Transfusionsmedizin Suhl Gemeinnützige GmbH,Wetzlarer Platz 1,98693,Ilmenau,07:00 - 19:00 Uhr,07:00 - 19:00 Uhr,08:00 - 20:00 Uhr,07:00 - 19:00 Uhr,07:00 - 17:00 Uhr,-,-,https://www.blutspendesuhl.de/58-0-Oeffnungszeiten-Ilmenau.html,spendeinfo@blutspendesuhl.de,(0 36 77) 46 19 31,ja,nein,ja,,
,Blut- und Plasmaspendestation Erfurt,51.00502059999999,11.0145377,Institut für Transfusionsmedizin Suhl Gemeinnützige GmbH,Mainzer Straße 36-37,99089,Erfurt,07:00 - 19:00 Uhr,07:00 - 19:00 Uhr,07:00 - 19:00 Uhr,07:00 - 19:00 Uhr,07:00 - 19:00 Uhr,07:30 - 12:30 Uhr,-,https://www.blutspendesuhl.de/146-0-Oeffnungszeiten-Erfurt.html,spendeinfo@blutspendesuhl.de,(03 61) 55 06 07-0,ja,nein,ja,,
,Haema Blutspendezentrum Erfurt,50.9739219,11.0325584,Haema AG,Lachsgasse 3,99084,Erfurt,7:30 - 19:30 Uhr,7:30 - 19:30 Uhr,7:30 - 19:30 Uhr,7:30 - 19:30 Uhr,7:30 - 19:30 Uhr,7:30 - 12:00 Uhr,-,https://www.haema.de/spendezentren/thueringen/erfurt.html,erfurt@haema.de,0361 644 112 0,ja,nein,ja,,
,Haema Blutspendezentrum Gera,50.8774024,12.0788907,Haema AG,Breitscheidstraße 1-5,´07545,Gera,7:30 - 19:30 Uhr,7:30 - 19:30 Uhr,7:30 - 19:30 Uhr,7:30 - 19:30 Uhr,7:30 - 19:30 Uhr,7:30 - 12:00 Uhr,-,https://www.haema.de/spendezentren/thueringen/gera.html,gera@haema.de,0365 552 068 0,ja,nein,ja,,
,Haema Blutspendezentrum Gotha,50.9528907,10.7148775,Haema AG,Oststraße 51,99867,Gotha,7:30 - 19:30 Uhr,7:30 - 19:30 Uhr,7:30 - 19:30 Uhr,7:30 - 19:30 Uhr,7:30 - 19:30 Uhr,7:30 - 12:00 Uhr,-,https://www.haema.de/spendezentren/thueringen/gotha.html?nomob=1,gotha@haema.de,03621 733 770,ja,nein,ja,,
,Haema Blutspendezentrum Jena,50.9275672,11.5821893,Haema AG,Goethestraße 3a,´07743,Jena,7:30 - 19:30 Uhr,7:30 - 19:30 Uhr,7:30 - 19:30 Uhr,7:30 - 19:30 Uhr,7:30 - 19:30 Uhr,jeden 2. Samstag 7:30 - 12:00 Uhr,-,https://www.haema.de/spendezentren/thueringen/jena.html,jena@haema.de,03641 227 180,ja,nein,ja,,
,Haema Blutspendezentrum Weimar,50.9772574,11.3252383,Haema AG,Steubenstraße 15,99423,Weimar,7:30 - 19:30 Uhr,7:30 - 19:30 Uhr,7:30 - 19:30 Uhr,7:30 - 19:30 Uhr,7:30 - 19:30 Uhr,7:30 - 12:00 Uhr,-,https://www.haema.de/spendezentren/thueringen/weimar.html?nomob=1,weimar@haema.de,03643 458 163 0,ja,nein,ja,,